KUIPER-00167            
1 65780U 25217U   25346.16668980  .00046806  00000+0  41315-2 0  9996
2 65780  51.8894  73.1508 0011005 340.4813 340.1323 14.95882942  1309
KUIPER-00168            
1 65781U 25217V   25346.16668980  .00081997  00000+0  21825-2 0  9991
2 65781  51.8716  66.5780 0000582   6.3420  33.7427 15.37486164  5162
KUIPER-00169            
1 65782U 25217W   25346.16668980 -.00924788  00000+0 -31051-1 0  9999
2 65782  51.8735  67.1431 0004763 359.4168 130.2072 15.33128005  5319
KUIPER-00170            
1 65783U 25217X   25346.16668980 -.01772600  00000+0 -90062-1 0  9992
2 65783  51.8813  69.0114 0008597 358.8551 297.9301 15.20048109  5895
KUIPER-00171            
1 65784U 25217Y   25345.45969366  .00312204  00000+0  24972-2 0  9991
2 65784  51.8580  62.7091 0010630   4.9555 355.1549 15.69514261 11950
KUIPER-00172            
1 65785U 25217Z   25345.58761193  .00028708  00000+0  75040-3 0  9990
2 65785  51.8723  69.5291 0004813 350.1410   9.9482 15.38526529 11876
KUIPER-00173            
1 65786U 25217AA  25346.16668980 -.01368781  00000+0 -49270-1 0  9991
2 65786  51.8745  67.2032 0003494 307.6804 128.0473 15.31134611  5918
KUIPER-00174            
1 65787U 25217AB  25345.64906058  .00052311  00000+0  13570-2 0  9996
2 65787  51.8722  69.1897 0002727 296.9960  63.0749 15.38481053 11884
